CUTE-1 (CO-55)          
1 27844U 03031E   21292.28720182  .00000101  00000-0  64961-4 0  9990
2 27844  98.6821 298.6299 0010972  81.5155 278.7266 14.22341129949582
CUBESAT XI-IV (CO-57)   
1 27848U 03031J   21292.24699781  .00000086  00000-0  58500-4 0  9994
2 27848  98.6875 299.1461 0010879  93.8901 266.3521 14.21914065949405
CUBESAT XI-V            
1 28895U 05043F   21292.34325337  .00000301  00000-0  66373-4 0  9993
2 28895  98.0765  62.9999 0016890 176.0869 184.0469 14.63981647852134
CUTE-1.7+APD II (CO-65) 
1 32785U 08021C   21292.40329076  .00000643  00000-0  74254-4 0  9992
2 32785  97.6262 266.5338 0011883 318.2525  41.7785 14.88846062730615
AAUSAT-II               
1 32788U 08021F   21292.45479694  .00001760  00000-0  16232-3 0  9994
2 32788  97.5147 281.9878 0010723 205.9921 154.0764 14.95846102732398
DELFI-C3 (DO-64)        
1 32789U 08021G   21292.32768977  .00003340  00000-0  21112-3 0  9995
2 32789  97.3664 322.9028 0013199  79.1233 281.1481 15.09626988735510
SEEDS II (CO-66)        
1 32791U 08021J   21292.40936074  .00000839  00000-0  88947-4 0  9992
2 32791  97.5847 272.3219 0011520 274.6514  85.3389 14.91584753731259
SWISSCUBE               
1 35932U 09051B   21292.14310474  .00000246  00000-0  66281-4 0  9996
2 35932  98.5921 136.0085 0008658  70.4531 289.7600 14.56596042640967
BEESAT-1                
1 35933U 09051C   21292.51632093  .00000189  00000-0  53403-4 0  9990
2 35933  98.5873 138.1611 0006896  80.9490 279.2487 14.56646222641092
ITUPSAT1                
1 35935U 09051E   21292.52582086  .00000174  00000-0  50797-4 0  9996
2 35935  98.5976 138.2833 0009232  82.2583 277.9661 14.55773716640827
TISAT 1                 
1 36799U 10035E   21292.13406785  .00000684  00000-0  73676-4 0  9994
2 36799  98.2009 127.9600 0012310 162.3116 197.8532 14.91913390611773
M-CUBED & EXP-1 PRIME   
1 37855U 11061F   21292.42938523  .00004938  00000-0  23852-3 0  9996
2 37855 101.7225 280.2511 0164996  61.7768 299.9994 15.08368268544862
AEROCUBE 4.5A           
1 38767U 12048K   21292.31365626  .00001206  00000-0  10222-3 0  9993
2 38767  64.6637 146.9188 0167587 329.2183  29.9181 14.93124431114765
AEROCUBE 4.5B           
1 38768U 12048L   21292.48466157  .00001196  00000-0  93681-4 0  9992
2 38768  64.6641 105.9354 0158914 324.0058  35.0433 14.97089029115057
STRAND-1                
1 39090U 13009E   21292.50434457  .00000068  00000-0  38796-4 0  9993
2 39090  98.4178 131.7319 0007998 270.0108  90.0161 14.35192151452837
SOMP                    
1 39134U 13015E   21292.29363739  .00004204  00000-0  18368-3 0  9997
2 39134  64.8619 129.5314 0020728 314.4231  45.5200 15.23368312470076
BEESAT-3                
1 39135U 13015F   21292.36319920  .00003194  00000-0  15629-3 0  9993
2 39135  64.8668 160.5814 0018429 329.7609  30.2453 15.19997982469439
BEESAT-2                
1 39136U 13015G   21292.15189731  .00002818  00000-0  14188-3 0  9997
2 39136  64.8756 168.1856 0016250 242.5011 117.4465 15.19300388469223
NEE-01 PEGASO           
1 39151U 13018B   21292.25162382  .00000401  00000-0  59404-4 0  9998
2 39151  97.9848  34.0234 0015996 320.5590  39.4456 14.80434725457988
ESTCUBE 1               
1 39161U 13021C   21292.15677088  .00000366  00000-0  65302-4 0  9990
2 39161  97.9307  10.4629 0010555 112.2817 247.9527 14.72554504453956
POPACS 1                
1 39268U 13055D   21292.28072121  .00009664  00000-0  25727-3 0  9992
2 39268  80.9971 137.5812 0595626 205.2248 151.8744 14.44401122418429
POPACS 2                
1 39269U 13055E   21292.43627378  .00006713  00000-0  18958-3 0  9990
2 39269  81.0161 187.4902 0663506 334.7024  22.2972 14.28871988415727
POPACS 3                
1 39270U 13055F   21292.51319226  .00004018  00000-0  12198-3 0  9997
2 39270  81.0181 216.2150 0702030  56.3477 310.2654 14.18962436394431
ZACUBE-1 (TSHEPISOSAT)  
1 39417U 13066B   21292.44894490  .00000548  00000-0  73975-4 0  9990
2 39417  97.6069 270.4420 0059879 114.0064 246.7433 14.81629507427438
WNISAT-1                
1 39423U 13066H   21292.53518958  .00000139  00000-0  36860-4 0  9997
2 39423  97.7772 186.3422 0174762 169.6547 190.8328 14.53264030419466
TRITON-1                
1 39427U 13066M   21292.41325833  .00000638  00000-0  10887-3 0  9990
2 39427  97.7864 234.1667 0112196 315.5211  43.7027 14.68355266423407
DELFI-N3XT              
1 39428U 13066N   21292.39729811  .00001182  00000-0  19298-3 0  9992
2 39428  97.7899 232.6456 0118896 328.7767  30.6412 14.68185005423157
GOMX-1                  
1 39430U 13066Q   21292.60883683  .00000466  00000-0  91946-4 0  9992
2 39430  97.8101 208.5358 0151697  83.8640 277.9820 14.59698507421158
CUBEBUG-2 (LO-74)       
1 39440U 13066AA  21292.41912512  .00000420  00000-0  64723-4 0  9999
2 39440  97.6922 255.7473 0079227 192.3384 167.5888 14.76352840424718
NEE-02 KRYSAOR          
1 39441U 13066AB  21292.43545679  .00000297  00000-0  49012-4 0  9994
2 39441  97.7021 253.0543 0080616 204.2452 155.4956 14.75263670424490
FUNCUBE-1 (AO-73)       
1 39444U 13066AE  21292.42382596  .00000666  00000-0  86648-4 0  9999
2 39444  97.5968 272.8019 0059002 103.9774 256.8011 14.82559842425806
UWE-3                   
1 39446U 13066AG  21292.44980068  .00000457  00000-0  66295-4 0  9995
2 39446  97.6525 262.5739 0070102 153.8866 206.5910 14.78892060424832
AEROCUBE 5A             
1 39465U 13072D   21292.41231294  .00011978  00000-0  85886-3 0  9996
2 39465 120.4936 142.4512 0249407  29.0363 332.4318 14.83222657113720
AEROCUBE 5B             
1 39466U 13072E   21292.53507465  .00022602  00000-0  12689-2 0  9992
2 39466 120.4657 208.3283 0216106  43.8569 317.9436 14.95682869114470
BRITE-CA1 (TORONTO)     
1 40020U 14033L   21292.42141283  .00000158  00000-0  35323-4 0  9992
2 40020  97.7534  99.1061 0086171 312.9991  46.4014 14.66782680392322
DUCHIFAT-1              
1 40021U 14033M   21292.38455823  .00001298  00000-0  13517-3 0  9992
2 40021  97.9821 233.9570 0013988 112.6560 247.6138 14.91547062398756
NANOSATC-BR1            
1 40024U 14033Q   21292.35909681  .00000950  00000-0  10280-3 0  9996
2 40024  97.9585 228.4567 0013309 117.9657 242.2910 14.90613655398056
QB50P1                  
1 40025U 14033R   21292.36169755  .00000842  00000-0  94041-4 0  9996
2 40025  97.9376 223.4020 0013407 126.4987 233.7467 14.89587623397867
QB50P2                  
1 40032U 14033Y   21292.36890035  .00000717  00000-0  81978-4 0  9992
2 40032  97.9190 219.6100 0012882 124.0156 236.2286 14.89085181397738
PERSEUS-M2              
1 40037U 14033AD  21292.31870532  .00000270  00000-0  36527-4 0  9996
2 40037  97.8876 211.0527 0015101 144.2967 215.9262 14.86734063397299
PERSEUS-M1              
1 40039U 14033AF  21292.52039191  .00000208  00000-0  29771-4 0  9993
2 40039  97.8803 209.4161 0014993 142.4185 217.8081 14.86352471397217
POLYITAN-1              
1 40042U 14033AJ  21292.36131741  .00001016  00000-0  11272-3 0  9997
2 40042  97.9473 224.3217 0015696 119.0551 241.2240 14.89421584397753
TIGRISAT                
1 40043U 14033AK  21292.50048503  .00000312  00000-0  52882-4 0  9998
2 40043  97.6634 129.7406 0058793 215.7444 143.9825 14.74606595394113
AEROCUBE 6A             
1 40045U 14033AM  21292.28376892  .00000472  00000-0  74198-4 0  9991
2 40045  97.6822 137.3605 0056720 205.6336 154.2061 14.75906626394202
AEROCUBE 6B             
1 40046U 14033AN  21292.49004928  .00000575  00000-0  88654-4 0  9999
2 40046  97.6722 136.2462 0055925 203.5421 156.3228 14.75983544394234
UKUBE-1                 
1 40074U 14037F   21292.59435598  .00000703  00000-0  90177-4 0  9992
2 40074  98.4128 155.3246 0004501   0.8004 359.3233 14.84675955394320
BRITE-PL2 (HEWELIUSZ)   
1 40119U 14049B   21292.50351322  .00000282  00000-0  39615-4 0  9990
2 40119  97.8884  25.6916 0016263 313.6466  46.3399 14.84723065388257
FIREBIRD 4              
1 40378U 15003C   21292.43996141  .00007395  00000-0  25892-3 0  9997
2 40378  99.1138 100.0368 0115182 116.7371 244.5703 15.23741854371665
GRIFEX                  
1 40379U 15003D   21292.48805674  .00005378  00000-0  21242-3 0  9997
2 40379  99.1117  88.3131 0126472 151.8360 208.9787 15.18949471371004
CP10 (EXOCUBE)          
1 40380U 15003E   21292.48228421  .00005260  00000-0  22028-3 0  9991
2 40380  99.1135  82.2095 0132144 172.2937 188.0364 15.16477285370609
AEROCUBE 8A             
1 40659U 15025J   21282.13514997  .05661787  12017-4  60766-3 0  9994
2 40659  54.9830 189.0569 0005044 296.8159  63.2396 16.36725578118825
TIANWANG 1A (TW-1A)     
1 40928U 15051D   21292.49799240  .00009913  00000-0  19307-3 0  9990
2 40928  97.0692 314.5003 0008579 185.0070 279.1306 15.47705852340867
EXACTVIEW 9             
1 40936U 15052G   21290.27338885  .00000508  00000-0 -18110-4 0  9992
2 40936   6.0065 108.4858 0010769 312.3714  47.5671 14.76761911327251
AEROCUBE 5C             
1 40965U 15058B   21292.51577068  .00000362  00000-0  56266-4 0  9998
2 40965  64.7752 102.0784 0210114 273.3512  84.3578 14.74874403113429
AEROCUBE 7              
1 40966U 15058C   21292.45261278  .00000592  00000-0  79683-4 0  9998
2 40966  64.7754  99.9796 0208794 273.0291  84.6940 14.75255663113407
ATHENOXAT 1             
1 41168U 15077C   21292.60493612  .00004995  00000-0  21384-3 0  9995
2 41168  14.9889  67.8318 0010958 103.7283 241.6622 15.16375904323643
GALASSIA                
1 41170U 15077E   21291.72167956  .00005048  00000-0  21549-3 0  9992
2 41170  14.9892  64.7947 0011947 123.5040 236.6424 15.16510505323433
VELOX-II                
1 41171U 15077F   21292.20212790  .00003337  00000-0  14601-3 0  9994
2 41171  14.9906 123.6671 0008539 351.5935   8.4242 15.12983253322991
HORYU-4                 
1 41340U 16012D   21292.16216170  .00001155  00000-0  79242-4 0  9992
2 41340  31.0043  98.2993 0013882 321.3780  38.5863 15.02084998311409
